[
    {
        "OBJECT_NAME": "SL-16 R/B",
        "OBJECT_ID": "1998-045B",
        "EPOCH": "2026-06-27T18:14:37.046400",
        "MEAN_MOTION": 14.16204264,
        "ECCENTRICITY": 0.0008916,
        "INCLINATION": 71.0122,
        "RA_OF_ASC_NODE": 310.0934,
        "ARG_OF_PERICENTER": 228.044,
        "MEAN_ANOMALY": 131.9924,
        "EPHEMERIS_TYPE": 0,
        "CLASSIFICATION_TYPE": "U",
        "NORAD_CAT_ID": 25407,
        "ELEMENT_SET_NO": 999,
        "REV_AT_EPOCH": 44268,
        "BSTAR": 0.00015255,
        "MEAN_MOTION_DOT": 2.54e-06,
        "MEAN_MOTION_DDOT": 0
    },
    {
        "OBJECT_NAME": "ISS (ZARYA)",
        "OBJECT_ID": "1998-067A",
        "EPOCH": "2026-06-27T16:52:15.689568",
        "MEAN_MOTION": 15.49456407,
        "ECCENTRICITY": 0.0004261,
        "INCLINATION": 51.6321,
        "RA_OF_ASC_NODE": 248.0384,
        "ARG_OF_PERICENTER": 239.2483,
        "MEAN_ANOMALY": 120.8086,
        "EPHEMERIS_TYPE": 0,
        "CLASSIFICATION_TYPE": "U",
        "NORAD_CAT_ID": 25544,
        "ELEMENT_SET_NO": 999,
        "REV_AT_EPOCH": 57338,
        "BSTAR": 0.00011337,
        "MEAN_MOTION_DOT": 5.9e-05,
        "MEAN_MOTION_DDOT": 0
    },
    {
        "OBJECT_NAME": "CZ-4B R/B",
        "OBJECT_ID": "1999-025C",
        "EPOCH": "2026-06-27T21:11:57.263424",
        "MEAN_MOTION": 14.18285114,
        "ECCENTRICITY": 0.0037619,
        "INCLINATION": 98.6479,
        "RA_OF_ASC_NODE": 220.4525,
        "ARG_OF_PERICENTER": 29.508,
        "MEAN_ANOMALY": 143.9545,
        "EPHEMERIS_TYPE": 0,
        "CLASSIFICATION_TYPE": "U",
        "NORAD_CAT_ID": 25732,
        "ELEMENT_SET_NO": 999,
        "REV_AT_EPOCH": 40378,
        "BSTAR": 4.4048e-05,
        "MEAN_MOTION_DOT": 4.8e-07,
        "MEAN_MOTION_DDOT": 0
    },
    {
        "OBJECT_NAME": "OKEAN-O",
        "OBJECT_ID": "1999-039A",
        "EPOCH": "2026-06-27T18:08:35.306880",
        "MEAN_MOTION": 14.80479121,
        "ECCENTRICITY": 0.0001305,
        "INCLINATION": 97.9311,
        "RA_OF_ASC_NODE": 237.4324,
        "ARG_OF_PERICENTER": 70.0729,
        "MEAN_ANOMALY": 290.0624,
        "EPHEMERIS_TYPE": 0,
        "CLASSIFICATION_TYPE": "U",
        "NORAD_CAT_ID": 25860,
        "ELEMENT_SET_NO": 999,
        "REV_AT_EPOCH": 45067,
        "BSTAR": 8.1186e-05,
        "MEAN_MOTION_DOT": 5.69e-06,
        "MEAN_MOTION_DDOT": 0
    },
    {
        "OBJECT_NAME": "SL-16 R/B",
        "OBJECT_ID": "1999-039B",
        "EPOCH": "2026-06-27T18:25:48.008064",
        "MEAN_MOTION": 14.81854797,
        "ECCENTRICITY": 0.0013387,
        "INCLINATION": 97.9834,
        "RA_OF_ASC_NODE": 237.6007,
        "ARG_OF_PERICENTER": 259.0612,
        "MEAN_ANOMALY": 100.9095,
        "EPHEMERIS_TYPE": 0,
        "CLASSIFICATION_TYPE": "U",
        "NORAD_CAT_ID": 25861,
        "ELEMENT_SET_NO": 999,
        "REV_AT_EPOCH": 45316,
        "BSTAR": 6.4369e-05,
        "MEAN_MOTION_DOT": 4.55e-06,
        "MEAN_MOTION_DDOT": 0
    },
    {
        "OBJECT_NAME": "DELTA 2 R/B",
        "OBJECT_ID": "1999-041E",
        "EPOCH": "2026-06-27T20:43:18.400224",
        "MEAN_MOTION": 14.12033558,
        "ECCENTRICITY": 0.0501008,
        "INCLINATION": 51.7627,
        "RA_OF_ASC_NODE": 221.1469,
        "ARG_OF_PERICENTER": 313.5723,
        "MEAN_ANOMALY": 42.4623,
        "EPHEMERIS_TYPE": 0,
        "CLASSIFICATION_TYPE": "U",
        "NORAD_CAT_ID": 25876,
        "ELEMENT_SET_NO": 999,
        "REV_AT_EPOCH": 37859,
        "BSTAR": 0.00020388,
        "MEAN_MOTION_DOT": 1.031e-05,
        "MEAN_MOTION_DDOT": 0
    },
    {
        "OBJECT_NAME": "HELIOS 1B",
        "OBJECT_ID": "1999-064A",
        "EPOCH": "2026-06-27T17:39:50.914080",
        "MEAN_MOTION": 14.88032925,
        "ECCENTRICITY": 0.0002499,
        "INCLINATION": 98.1607,
        "RA_OF_ASC_NODE": 84.1807,
        "ARG_OF_PERICENTER": 76.8159,
        "MEAN_ANOMALY": 283.3335,
        "EPHEMERIS_TYPE": 0,
        "CLASSIFICATION_TYPE": "U",
        "NORAD_CAT_ID": 25977,
        "ELEMENT_SET_NO": 999,
        "REV_AT_EPOCH": 70162,
        "BSTAR": 0.00014944,
        "MEAN_MOTION_DOT": 1.314e-05,
        "MEAN_MOTION_DDOT": 0
    },
    {
        "OBJECT_NAME": "TERRA",
        "OBJECT_ID": "1999-068A",
        "EPOCH": "2026-06-27T20:21:16.068096",
        "MEAN_MOTION": 14.61110994,
        "ECCENTRICITY": 0.0002413,
        "INCLINATION": 97.9451,
        "RA_OF_ASC_NODE": 227.9715,
        "ARG_OF_PERICENTER": 159.3344,
        "MEAN_ANOMALY": 316.4092,
        "EPHEMERIS_TYPE": 0,
        "CLASSIFICATION_TYPE": "U",
        "NORAD_CAT_ID": 25994,
        "ELEMENT_SET_NO": 999,
        "REV_AT_EPOCH": 41116,
        "BSTAR": 8.5237e-05,
        "MEAN_MOTION_DOT": 3.75e-06,
        "MEAN_MOTION_DDOT": 0
    },
    {
        "OBJECT_NAME": "SL-16 R/B",
        "OBJECT_ID": "2000-006B",
        "EPOCH": "2026-06-27T12:30:57.250080",
        "MEAN_MOTION": 14.15838917,
        "ECCENTRICITY": 0.0016192,
        "INCLINATION": 71.0014,
        "RA_OF_ASC_NODE": 226.8959,
        "ARG_OF_PERICENTER": 6.779,
        "MEAN_ANOMALY": 353.3549,
        "EPHEMERIS_TYPE": 0,
        "CLASSIFICATION_TYPE": "U",
        "NORAD_CAT_ID": 26070,
        "ELEMENT_SET_NO": 999,
        "REV_AT_EPOCH": 36410,
        "BSTAR": 0.00016274,
        "MEAN_MOTION_DOT": 2.73e-06,
        "MEAN_MOTION_DDOT": 0
    },
    {
        "OBJECT_NAME": "TITAN 4B R/B",
        "OBJECT_ID": "2000-047B",
        "EPOCH": "2026-06-27T20:32:03.212736",
        "MEAN_MOTION": 15.10254334,
        "ECCENTRICITY": 0.0045897,
        "INCLINATION": 67.9891,
        "RA_OF_ASC_NODE": 90.5436,
        "ARG_OF_PERICENTER": 276.2913,
        "MEAN_ANOMALY": 83.301,
        "EPHEMERIS_TYPE": 0,
        "CLASSIFICATION_TYPE": "U",
        "NORAD_CAT_ID": 26474,
        "ELEMENT_SET_NO": 999,
        "REV_AT_EPOCH": 40954,
        "BSTAR": 0.00016885,
        "MEAN_MOTION_DOT": 2.698e-05,
        "MEAN_MOTION_DDOT": 0
    },
    {
        "OBJECT_NAME": "ENVISAT",
        "OBJECT_ID": "2002-009A",
        "EPOCH": "2026-06-27T21:05:39.804288",
        "MEAN_MOTION": 14.3906714,
        "ECCENTRICITY": 0.000139,
        "INCLINATION": 98.3837,
        "RA_OF_ASC_NODE": 129.9591,
        "ARG_OF_PERICENTER": 86.7614,
        "MEAN_ANOMALY": 291.5164,
        "EPHEMERIS_TYPE": 0,
        "CLASSIFICATION_TYPE": "U",
        "NORAD_CAT_ID": 27386,
        "ELEMENT_SET_NO": 999,
        "REV_AT_EPOCH": 27502,
        "BSTAR": 3.7633e-05,
        "MEAN_MOTION_DOT": 7.3e-07,
        "MEAN_MOTION_DDOT": 0
    },
    {
        "OBJECT_NAME": "IDEFIX & ARIANE 42P R/B",
        "OBJECT_ID": "2002-021B",
        "EPOCH": "2026-06-27T19:50:42.641952",
        "MEAN_MOTION": 14.31086667,
        "ECCENTRICITY": 0.0010881,
        "INCLINATION": 98.5943,
        "RA_OF_ASC_NODE": 116.1948,
        "ARG_OF_PERICENTER": 219.2968,
        "MEAN_ANOMALY": 140.7426,
        "EPHEMERIS_TYPE": 0,
        "CLASSIFICATION_TYPE": "U",
        "NORAD_CAT_ID": 27422,
        "ELEMENT_SET_NO": 999,
        "REV_AT_EPOCH": 25977,
        "BSTAR": 8.7104e-05,
        "MEAN_MOTION_DOT": 1.86e-06,
        "MEAN_MOTION_DDOT": 0
    },
    {
        "OBJECT_NAME": "AQUA",
        "OBJECT_ID": "2002-022A",
        "EPOCH": "2026-06-27T20:39:11.951136",
        "MEAN_MOTION": 14.62173301,
        "ECCENTRICITY": 7.51e-05,
        "INCLINATION": 98.4281,
        "RA_OF_ASC_NODE": 148.3569,
        "ARG_OF_PERICENTER": 67.5599,
        "MEAN_ANOMALY": 322.611,
        "EPHEMERIS_TYPE": 0,
        "CLASSIFICATION_TYPE": "U",
        "NORAD_CAT_ID": 27424,
        "ELEMENT_SET_NO": 999,
        "REV_AT_EPOCH": 28483,
        "BSTAR": 0.00015646,
        "MEAN_MOTION_DOT": 7.38e-06,
        "MEAN_MOTION_DDOT": 0
    },
    {
        "OBJECT_NAME": "CZ-4B R/B",
        "OBJECT_ID": "2002-024C",
        "EPOCH": "2026-06-27T18:58:11.570016",
        "MEAN_MOTION": 14.14565793,
        "ECCENTRICITY": 0.0051161,
        "INCLINATION": 98.8695,
        "RA_OF_ASC_NODE": 231.5415,
        "ARG_OF_PERICENTER": 70.7399,
        "MEAN_ANOMALY": 45.9857,
        "EPHEMERIS_TYPE": 0,
        "CLASSIFICATION_TYPE": "U",
        "NORAD_CAT_ID": 27432,
        "ELEMENT_SET_NO": 999,
        "REV_AT_EPOCH": 24480,
        "BSTAR": 4.3846e-05,
        "MEAN_MOTION_DOT": 4.1e-07,
        "MEAN_MOTION_DDOT": 0
    },
    {
        "OBJECT_NAME": "MIDORI II (ADEOS-II)",
        "OBJECT_ID": "2002-056A",
        "EPOCH": "2026-06-27T20:21:32.134176",
        "MEAN_MOTION": 14.29354982,
        "ECCENTRICITY": 0.0002064,
        "INCLINATION": 98.7883,
        "RA_OF_ASC_NODE": 138.199,
        "ARG_OF_PERICENTER": 63.1477,
        "MEAN_ANOMALY": 296.9915,
        "EPHEMERIS_TYPE": 0,
        "CLASSIFICATION_TYPE": "U",
        "NORAD_CAT_ID": 27597,
        "ELEMENT_SET_NO": 999,
        "REV_AT_EPOCH": 22603,
        "BSTAR": 0.00010698,
        "MEAN_MOTION_DOT": 2.27e-06,
        "MEAN_MOTION_DDOT": 0
    },
    {
        "OBJECT_NAME": "H-2A R/B",
        "OBJECT_ID": "2002-056E",
        "EPOCH": "2026-06-27T21:18:54.807840",
        "MEAN_MOTION": 14.33826359,
        "ECCENTRICITY": 0.006977,
        "INCLINATION": 98.3316,
        "RA_OF_ASC_NODE": 135.1728,
        "ARG_OF_PERICENTER": 192.3425,
        "MEAN_ANOMALY": 177.3717,
        "EPHEMERIS_TYPE": 0,
        "CLASSIFICATION_TYPE": "U",
        "NORAD_CAT_ID": 27601,
        "ELEMENT_SET_NO": 999,
        "REV_AT_EPOCH": 22990,
        "BSTAR": 7.6199e-05,
        "MEAN_MOTION_DOT": 1.76e-06,
        "MEAN_MOTION_DDOT": 0
    }
]